{
  "type": "FeatureCollection",
  "features": [
    {
      "type": "Feature",
      "properties": {
        "norad_id": 57400,
        "name": "TIANMU-1 08",
        "group": "weather",
        "lat": 79.67572997569442,
        "lon": -91.21779821037904,
        "alt_km": 469.9343491023683,
        "timestamp": "2025-12-20T16:47:35.934351+00:00",
        "meta_object_name": "TIANMU-1 08",
        "meta_object_id": "2023-101B",
        "meta_epoch": "2025-12-20T11:39:17.890272",
        "meta_mean_motion": 15.28156356,
        "meta_eccentricity": 0.0007238,
        "meta_inclination": 97.2855,
        "meta_ra_of_asc_node": 43.9616,
        "meta_arg_of_pericenter": 62.193,
        "meta_mean_anomaly": 298.0042,
        "meta_ephemeris_type": 0,
        "meta_classification_type": "U",
        "meta_norad_cat_id": 57400,
        "meta_element_set_no": 999,
        "meta_rev_at_epoch": 13433,
        "meta_bstar": 0.00018902,
        "meta_mean_motion_dot": 5.118e-05,
        "meta_mean_motion_ddot": 0,
        "tle_line1": "1 57400U 23101B   25354.48562373  .00005118  00000+0  18902-3 0  9997",
        "tle_line2": "2 57400  97.2855  43.9616 0007238  62.1930 298.0042 15.28156356134335"
      },
      "geometry": {
        "type": "Point",
        "coordinates": [
          -91.21779821037904,
          79.67572997569442
        ]
      }
    },
    {
      "type": "Feature",
      "properties": {
        "norad_id": 57401,
        "name": "TIANMU-1 09",
        "group": "weather",
        "lat": 8.925304232621796,
        "lon": -135.16932551694555,
        "alt_km": 484.5323164200445,
        "timestamp": "2025-12-20T16:47:35.934364+00:00",
        "meta_object_name": "TIANMU-1 09",
        "meta_object_id": "2023-101C",
        "meta_epoch": "2025-12-20T11:20:02.442336",
        "meta_mean_motion": 15.28189168,
        "meta_eccentricity": 0.0006501,
        "meta_inclination": 97.2811,
        "meta_ra_of_asc_node": 43.4578,
        "meta_arg_of_pericenter": 62.7304,
        "meta_mean_anomaly": 297.4597,
        "meta_ephemeris_type": 0,
        "meta_classification_type": "U",
        "meta_norad_cat_id": 57401,
        "meta_element_set_no": 999,
        "meta_rev_at_epoch": 13433,
        "meta_bstar": 0.00018915,
        "meta_mean_motion_dot": 5.126e-05,
        "meta_mean_motion_ddot": 0,
        "tle_line1": "1 57401U 23101C   25354.47225049  .00005126  00000+0  18915-3 0  9996",
        "tle_line2": "2 57401  97.2811  43.4578 0006501  62.7304 297.4597 15.28189168134338"
      },
      "geometry": {
        "type": "Point",
        "coordinates": [
          -135.16932551694555,
          8.925304232621796
        ]
      }
    },
    {
      "type": "Feature",
      "properties": {
        "norad_id": 57402,
        "name": "TIANMU-1 10",
        "group": "weather",
        "lat": -17.57261095055795,
        "lon": 46.8616772429734,
        "alt_km": 485.13079653307886,
        "timestamp": "2025-12-20T16:47:35.934374+00:00",
        "meta_object_name": "TIANMU-1 10",
        "meta_object_id": "2023-101D",
        "meta_epoch": "2025-12-20T12:09:22.011264",
        "meta_mean_motion": 15.28181034,
        "meta_eccentricity": 0.0008235,
        "meta_inclination": 97.2892,
        "meta_ra_of_asc_node": 44.3494,
        "meta_arg_of_pericenter": 61.0292,
        "meta_mean_anomaly": 299.1772,
        "meta_ephemeris_type": 0,
        "meta_classification_type": "U",
        "meta_norad_cat_id": 57402,
        "meta_element_set_no": 999,
        "meta_rev_at_epoch": 13433,
        "meta_bstar": 0.00019165,
        "meta_mean_motion_dot": 5.195e-05,
        "meta_mean_motion_ddot": 0,
        "tle_line1": "1 57402U 23101D   25354.50650476  .00005195  00000+0  19165-3 0  9991",
        "tle_line2": "2 57402  97.2892  44.3494 0008235  61.0292 299.1772 15.28181034134337"
      },
      "geometry": {
        "type": "Point",
        "coordinates": [
          46.8616772429734,
          -17.57261095055795
        ]
      }
    },
    {
      "type": "Feature",
      "properties": {
        "norad_id": 57490,
        "name": "FENGYUN 3F",
        "group": "weather",
        "lat": 25.323753569355535,
        "lon": 58.705672006755826,
        "alt_km": 824.8375024630941,
        "timestamp": "2025-12-20T16:47:35.934384+00:00",
        "meta_object_name": "FENGYUN 3F",
        "meta_object_id": "2023-111A",
        "meta_epoch": "2025-12-20T11:35:57.400800",
        "meta_mean_motion": 14.1989543,
        "meta_eccentricity": 7.55e-05,
        "meta_inclination": 98.7074,
        "meta_ra_of_asc_node": 62.6515,
        "meta_arg_of_pericenter": 113.7269,
        "meta_mean_anomaly": 246.3987,
        "meta_ephemeris_type": 0,
        "meta_classification_type": "U",
        "meta_norad_cat_id": 57490,
        "meta_element_set_no": 999,
        "meta_rev_at_epoch": 12350,
        "meta_bstar": 4.4124e-05,
        "meta_mean_motion_dot": 5e-07,
        "meta_mean_motion_ddot": 0,
        "tle_line1": "1 57490U 23111A   25354.48330325  .00000050  00000+0  44124-4 0  9993",
        "tle_line2": "2 57490  98.7074  62.6515 0000755 113.7269 246.3987 14.19895430123507"
      },
      "geometry": {
        "type": "Point",
        "coordinates": [
          58.705672006755826,
          25.323753569355535
        ]
      }
    },
    {
      "type": "Feature",
      "properties": {
        "norad_id": 58584,
        "name": "ARKTIKA-M 2",
        "group": "weather",
        "lat": 42.53994877544764,
        "lon": -33.60473615331591,
        "alt_km": 21982.989948449293,
        "timestamp": "2025-12-20T16:47:35.934396+00:00",
        "meta_object_name": "ARKTIKA-M 2",
        "meta_object_id": "2023-198A",
        "meta_epoch": "2025-12-20T07:20:06.590112",
        "meta_mean_motion": 2.00602824,
        "meta_eccentricity": 0.6865467,
        "meta_inclination": 63.225,
        "meta_ra_of_asc_node": 174.0676,
        "meta_arg_of_pericenter": 268.0739,
        "meta_mean_anomaly": 18.8406,
        "meta_ephemeris_type": 0,
        "meta_classification_type": "U",
        "meta_norad_cat_id": 58584,
        "meta_element_set_no": 999,
        "meta_rev_at_epoch": 1473,
        "meta_bstar": 0,
        "meta_mean_motion_dot": 2.01e-06,
        "meta_mean_motion_ddot": 0,
        "tle_line1": "1 58584U 23198A   25354.30563183  .00000201  00000+0  00000+0 0  9992",
        "tle_line2": "2 58584  63.2250 174.0676 6865467 268.0739  18.8406  2.00602824 14734"
      },
      "geometry": {
        "type": "Point",
        "coordinates": [
          -33.60473615331591,
          42.53994877544764
        ]
      }
    },
    {
      "type": "Feature",
      "properties": {
        "norad_id": 58645,
        "name": "TIANMU-1 11",
        "group": "weather",
        "lat": 61.03147463062678,
        "lon": 0.6815639177920616,
        "alt_km": 490.0763145083638,
        "timestamp": "2025-12-20T16:47:35.934408+00:00",
        "meta_object_name": "TIANMU-1 11",
        "meta_object_id": "2023-205A",
        "meta_epoch": "2025-12-20T13:22:20.669088",
        "meta_mean_motion": 15.24687183,
        "meta_eccentricity": 0.0007537,
        "meta_inclination": 97.3595,
        "meta_ra_of_asc_node": 14.0432,
        "meta_arg_of_pericenter": 277.2492,
        "meta_mean_anomaly": 82.7889,
        "meta_ephemeris_type": 0,
        "meta_classification_type": "U",
        "meta_norad_cat_id": 58645,
        "meta_element_set_no": 999,
        "meta_rev_at_epoch": 11028,
        "meta_bstar": 0.00017531,
        "meta_mean_motion_dot": 4.265e-05,
        "meta_mean_motion_ddot": 0,
        "tle_line1": "1 58645U 23205A   25354.55718367  .00004265  00000+0  17531-3 0  9997",
        "tle_line2": "2 58645  97.3595  14.0432 0007537 277.2492  82.7889 15.24687183110286"
      },
      "geometry": {
        "type": "Point",
        "coordinates": [
          0.6815639177920616,
          61.03147463062678
        ]
      }
    },
    {
      "type": "Feature",
      "properties": {
        "norad_id": 58646,
        "name": "TIANMU-1 12",
        "group": "weather",
        "lat": -82.59200855213392,
        "lon": 97.65407344877717,
        "alt_km": 495.58663380517464,
        "timestamp": "2025-12-20T16:47:35.934440+00:00",
        "meta_object_name": "TIANMU-1 12",
        "meta_object_id": "2023-205B",
        "meta_epoch": "2025-12-20T12:27:29.572128",
        "meta_mean_motion": 15.2457195,
        "meta_eccentricity": 0.0005819,
        "meta_inclination": 97.3582,
        "meta_ra_of_asc_node": 13.8086,
        "meta_arg_of_pericenter": 255.9248,
        "meta_mean_anomaly": 104.1343,
        "meta_ephemeris_type": 0,
        "meta_classification_type": "U",
        "meta_norad_cat_id": 58646,
        "meta_element_set_no": 999,
        "meta_rev_at_epoch": 11026,
        "meta_bstar": 0.00018047,
        "meta_mean_motion_dot": 4.376e-05,
        "meta_mean_motion_ddot": 0,
        "tle_line1": "1 58646U 23205B   25354.51909227  .00004376  00000+0  18047-3 0  9997",
        "tle_line2": "2 58646  97.3582  13.8086 0005819 255.9248 104.1343 15.24571950110264"
      },
      "geometry": {
        "type": "Point",
        "coordinates": [
          97.65407344877717,
          -82.59200855213392
        ]
      }
    }
  ]
}